{
  "type": "FeatureCollection",
  "features": [
    {
      "type": "Feature",
      "properties": {
        "name": "Togo",
        "iso_a3": "TGO"
      },
      "geometry": {
        "type": "Polygon",
        "coordinates": [
          [
            [1.619, 6.120],
            [1.865, 6.140],
            [1.060, 6.218],
            [0.899, 6.450],
            [0.510, 6.910],
            [0.230, 8.220],
            [0.146, 9.050],
            [-0.050, 10.710],
            [0.023, 10.997],
            [0.365, 11.140],
            [0.900, 10.993],
            [0.772, 10.470],
            [1.077, 9.866],
            [1.425, 9.825],
            [1.463, 9.390],
            [1.664, 9.120],
            [1.618, 6.832],
            [1.865, 6.140],
            [1.619, 6.120]
          ]
        ]
      }
    }
  ]
}
